BEIDOU-3 G4 (C62)       
1 56564U 23066A   26066.61816492 -.00000112  00000+0  00000+0 0  9993
2 56564   0.6429 311.3646 0002340 155.5272  81.0116  1.00272485 10376
NVS-01 (IRNSS-1J)       
1 56759U 23076A   26066.36364374 -.00000339  00000+0  00000+0 0  9990
2 56759   2.4116 248.5178 0007162  46.2259 130.7664  1.00272800 10094
COSMOS 2569 (703K)      
1 57517U 23114A   26063.60906547  .00000011  00000+0  00000+0 0  9990
2 57517  65.2420  76.1460 0012898 291.6250  68.2783  2.13103963 20030
BEIDOU-3 M28 (C50)      
1 58654U 23207A   26065.20334731 -.00000038  00000+0  00000+0 0  9994
2 58654  55.6620  65.7757 0004930 303.3418  56.6273  1.86229805 14925
BEIDOU-3 M26 (C48)      
1 58655U 23207B   26065.53778212 -.00000039  00000+0  00000+0 0  9998
2 58655  55.6644  65.7507 0005731 288.8087  71.1446  1.86229716 14918
GSAT0225 (GALILEO 29)   
1 59598U 24079A   26064.58030672  .00000007  00000+0  00000+0 0  9992
2 59598  55.0507 103.9743 0002603 257.7426 101.8321  1.70474989 11547
GSAT0227 (GALILEO 30)   
1 59600U 24079C   26062.41821347  .00000012  00000+0  00000+0 0  9999
2 59600  55.0440 104.0338 0000359  68.5105 291.5792  1.70474834 11567
GSAT0232 (GALILEO 32)   
1 61182U 24167A   26048.66150565  .00000069  00000+0  00000+0 0  9995
2 61182  55.2225 224.5881 0003600 296.6314 116.1306  1.70443939  8265
GSAT0226 (GALILEO 31)   
1 61183U 24167B   26063.09230740  .00000011  00000+0  00000+0 0  9991
2 61183  55.2176 224.2005 0001588 128.6581 232.0353  1.70474186  9066
BEIDOU-3 M25 (C47)      
1 61186U 24168B   26066.16989234 -.00000069  00000+0  00000+0 0  9999
2 61186  54.5633 305.7886 0004258 319.2946 221.4621  1.86230307  9883
BEIDOU-3 M27 (C49)      
1 61187U 24168C   26064.31689484 -.00000067  00000+0  00000+0 0  9997
2 61187  54.5604 305.8361 0002980  20.4343 132.9740  1.86230358  7324
GPS BIII-7  (PRN 01)    
1 62339U 24242A   26065.64478888 -.00000104  00000+0  00000+0 0  9993
2 62339  54.8910 338.3407 0015837 356.9340   8.8099  2.00569825  9206
NVS-02 (IRNSS-1K)       
1 62850U 25020A   26066.07786588  .00000788  00000+0  66793-3 0  9995
2 62850  20.8378 296.7346 7350007  81.5207 348.1073  2.17723396  8759
QZS-6 (QZSS/PRN 200)    
1 62876U 25023A   26066.60622347 -.00000234  00000+0  00000+0 0  9999
2 62876   0.0200 262.9949 0001813  83.9353 127.0920  1.00269508  3946
COSMOS 2584 (704K)      
1 63130U 25042A   26059.74188024  .00000039  00000+0  00000+0 0  9992
2 63130  65.0213  76.4877 0007822 236.2440 123.7373  2.13103267  7739
GPS BIII-8  (PRN 21)    
1 64202U 25116A   26062.39238152 -.00000077  00000+0  00000+0 0  9991
2 64202  55.1633  35.3874 0008474 325.1064  37.8908  2.00553198  5758
COSMOS 2596 (708K)      
1 65590U 25206B   26065.45409123 -.00000062  00000+0  00000+0 0  9994
2 65590  64.6931 318.5640 0012860 315.8873 223.8531  2.13100383  3722
